NORAD_CAT_ID,OBJECT_NAME,OBJECT_TYPE,EPOCH,MEAN_MOTION,ECCENTRICITY,INCLINATION,RA_OF_ASC_NODE,ARG_OF_PERICENTER,MEAN_ANOMALY,BSTAR,MEAN_MOTION_DOT,MEAN_MOTION_DDOT,TLE_LINE0,TLE_LINE1,TLE_LINE2,SEMIMAJOR_AXIS,PERIOD,APOGEE,PERIGEE,DECAYED
49419.0,STARLINK-3120,PAYLOAD,2022-08-01 20:01:40,15.08841681,0.0001612,53.2181,16.2359,59.0768,301.0383,0.00011535,1.548e-05,0.0,0 STARLINK-3120,1 49419U 21104M   22213.83449141  .00001548  00000-0  11535-3 0  9995,2 49419  53.2181  16.2359 0001612  59.0768 301.0383 15.08841681 39978,6917.875,95.437,540.855,538.625,0.0
49419.0,STARLINK-3120,PAYLOAD,2022-08-02 03:58:35,15.08845112,0.0001614,53.2182,14.7491,60.1318,299.9834,0.00012518,1.705e-05,0.0,0 STARLINK-3120,1 49419U 21104M   22214.16568838  .00001705  00000-0  12518-3 0  9994,2 49419  53.2182  14.7491 0001614  60.1318 299.9834 15.08845112 41102,6917.865,95.437,540.846,538.613,0.0
49419.0,STARLINK-3120,PAYLOAD,2022-08-02 19:52:27,15.08836924,0.0001610999999999,53.2184,11.7756,60.5466,299.5686,-6.6734e-06,-3.94e-06,0.0,0 STARLINK-3120,1 49419U 21104M   22214.82809755 -.00000394  00000-0 -66734-5 0  9999,2 49419  53.2184  11.7756 0001611  60.5466 299.5686 15.08836924 40123,6917.89,95.438,540.869,538.64,0.0
49419.0,STARLINK-3120,PAYLOAD,2022-08-03 03:49:23,15.08839926,0.0001631,53.2187,10.2886,58.6094,301.5057,8.8367e-06,-1.47e-06,0.0,0 STARLINK-3120,1 49419U 21104M   22215.15929521 -.00000147  00000-0  88367-5 0  9991,2 49419  53.2187  10.2886 0001631  58.6094 301.5057 15.08839926 41257,6917.880999999999,95.438,540.874,538.617,0.0
49419.0,STARLINK-3120,PAYLOAD,2022-08-03 10:10:55,15.08842062,0.0001446,53.2182,9.0986,60.2051,299.9085,1.5791e-05,-3.7e-07,0.0,0 STARLINK-3120,1 49419U 21104M   22215.42425244 -.00000037  00000-0  15791-4 0  9992,2 49419  53.2182   9.0986 0001446  60.2051 299.9085 15.08842062 40216,6917.874,95.437,540.739,538.739,0.0
49419.0,STARLINK-3120,PAYLOAD,2022-08-03 19:43:13,15.0884847,0.000151,53.2183,7.3147,60.8676,299.2467,2.253300000000001e-05,7.1e-07,0.0,0 STARLINK-3120,1 49419U 21104M   22215.82168712  .00000071  00000-0  22533-4 0  9999,2 49419  53.2183   7.3147 0001510  60.8676 299.2467 15.08848470 40270,6917.854,95.437,540.764,538.675,0.0
49419.0,STARLINK-3120,PAYLOAD,2022-08-04 13:12:28,15.08844757,0.0001608,53.2186,4.0451,57.2585,302.8562,-5.3935e-05,-1.146e-05,0.0,0 STARLINK-3120,1 49419U 21104M   22216.55032985 -.00001146  00000-0 -53935-4 0  9998,2 49419  53.2186   4.0451 0001608  57.2585 302.8562 15.08844757 40385,6917.866,95.437,540.8430000000002,538.618,0.0
49419.0,STARLINK-3120,PAYLOAD,2022-08-04 19:34:01,15.08839409,9.66e-05,53.2178,2.8532,49.7361,310.3716,-7.737e-05,-1.519e-05,0.0,0 STARLINK-3120,1 49419U 21104M   22216.81529272 -.00001519  00000-0 -77370-4 0  9990,2 49419  53.2178   2.8532 0000966  49.7361 310.3716 15.08839409 41504,6917.882,95.438,540.415,539.0790000000002,0.0
49419.0,STARLINK-3120,PAYLOAD,2022-08-05 19:24:47,15.08845097,0.0001529,53.2188,358.3942,57.6496,302.4644,4.1064e-05,3.66e-06,0.0,0 STARLINK-3120,1 49419U 21104M   22217.80888727  .00000366  00000-0  41064-4 0  9991,2 49419  53.2188 358.3942 0001529  57.6496 302.4644 15.08845097 40570,6917.865,95.437,540.788,538.672,0.0
49419.0,STARLINK-3120,PAYLOAD,2022-08-06 11:18:40,15.0883348,0.0002016,53.2185,355.4199,76.1948,283.9268,-0.00028861,-4.878e-05,0.0,0 STARLINK-3120,1 49419U 21104M   22218.47130441 -.00004878  00000-0 -28861-3 0  9991,2 49419  53.2185 355.4199 0002016  76.1948 283.9268 15.08833480 41758,6917.9,95.438,541.16,538.371,0.0
49419.0,STARLINK-3120,PAYLOAD,2022-08-06 19:15:35,15.08834597,0.0001506,53.2186,353.9343,59.56,300.5541,5.4419e-05,5.78e-06,0.0,0 STARLINK-3120,1 49419U 21104M   22218.80249507  .00000578  00000-0  54419-4 0  9992,2 49419  53.2186 353.9343 0001506  59.5600 300.5541 15.08834597 40722,6917.897,95.438,540.804,538.72,0.0
49419.0,STARLINK-3120,PAYLOAD,2022-08-07 12:44:50,15.08833478,0.0001375999999999,53.218,350.6631,53.0649,307.0469,-7.610100000000001e-05,-1.499e-05,0.0,0 STARLINK-3120,1 49419U 21104M   22219.53114036 -.00001499  00000-0 -76101-4 0  9998,2 49419  53.2180 350.6631 0001376  53.0649 307.0469 15.08833478 40837,6917.9,95.438,540.717,538.813,0.0
49419.0,STARLINK-3120,PAYLOAD,2022-08-07 19:06:22,15.08836617,0.0001408,53.2182,349.4736,54.4234,305.6889,-3.9027e-05,-9.09e-06,0.0,0 STARLINK-3120,1 49419U 21104M   22219.79609818 -.00000909  00000-0 -39027-4 0  9994,2 49419  53.2182 349.4736 0001408  54.4234 305.6889 15.08836617 40874,6917.891,95.438,540.73,538.7819999999998,0.0
49419.0,STARLINK-3120,PAYLOAD,2022-08-08 11:00:13,15.08841779,0.0001438,53.2175,346.4993,49.09,311.0216,0.00011873,1.602e-05,0.0,0 STARLINK-3120,1 49419U 21104M   22220.45849179  .00001602  00000-0  11873-3 0  9992,2 49419  53.2175 346.4993 0001438  49.0900 311.0216 15.08841779 40972,6917.875,95.437,540.735,538.745,0.0
49419.0,STARLINK-3120,PAYLOAD,2022-08-08 17:21:46,15.08845675,0.0002015,53.2179,345.3125,63.4177,296.7021,0.00015573,2.192e-05,0.0,0 STARLINK-3120,1 49419U 21104M   22220.72344930  .00002192  00000-0  15573-3 0  9993,2 49419  53.2179 345.3125 0002015  63.4177 296.7021 15.08845675 41017,6917.863,95.437,541.122,538.3340000000002,0.0
49419.0,STARLINK-3120,PAYLOAD,2022-08-09 10:50:58,15.08854767,0.0002142,53.2188,342.0371,109.2656,250.8568,0.001042,0.00016341,0.0,0 STARLINK-3120,1 49419U 21104M   22221.45206042  .00016341  00000-0  10420-2 0  9991,2 49419  53.2188 342.0371 0002142 109.2656 250.8568 15.08854767 41127,6917.835,95.437,541.182,538.2180000000002,0.0
49419.0,STARLINK-3120,PAYLOAD,2022-08-09 17:12:40,15.08755519,0.0001892,53.2189,340.8486,105.0551,255.0651,-0.0012938,-0.00020773,0.0,0 STARLINK-3120,1 49419U 21104M   22221.71713114 -.00020773  00000-0 -12938-2 0  9995,2 49419  53.2189 340.8486 0001892 105.0551 255.0651 15.08755519 41169,6918.139,95.443,541.313,538.695,0.0
49419.0,STARLINK-3120,PAYLOAD,2022-08-10 01:09:28,15.08837047,0.000131,53.2184,339.3615,77.2699,282.844,-5.638600000000001e-05,-1.185e-05,0.0,0 STARLINK-3120,1 49419U 21104M   22222.04824893 -.00001185  00000-0 -56386-4 0  9992,2 49419  53.2184 339.3615 0001310  77.2699 282.8440 15.08837047 42295,6917.889,95.438,540.661,538.8480000000002,0.0
49419.0,STARLINK-3120,PAYLOAD,2022-08-10 10:41:47,15.08842678,0.0001264,53.2175,337.5775,72.305,287.808,1.9447e-05,2.2e-07,0.0,0 STARLINK-3120,1 49419U 21104M   22222.44568597  .00000022  00000-0  19447-4 0  9996,2 49419  53.2175 337.5775 0001264  72.3050 287.8080 15.08842678 41275,6917.871999999999,95.437,540.612,538.863,0.0
49419.0,STARLINK-3120,PAYLOAD,2022-08-10 17:03:21,15.08807586,0.0001343,53.2182,336.3885,67.3526,292.7608,-0.00043803,-7.246e-05,0.0,0 STARLINK-3120,1 49419U 21104M   22222.71066351 -.00007246  00000-0 -43803-3 0  9996,2 49419  53.2182 336.3885 0001343  67.3526 292.7608 15.08807586 41317,6917.979,95.44,540.774,538.915,0.0
49419.0,STARLINK-3120,PAYLOAD,2022-08-11 13:43:21,15.08879465,0.0002034,53.2189,332.527,97.4806,262.6417,-0.0007496,-0.00012211,0.0,0 STARLINK-3120,1 49419U 21104M   22223.57177141 -.00012211  00000-0 -74960-3 0  9997,2 49419  53.2189 332.5270 0002034  97.4806 262.6417 15.08879465 41446,6917.76,95.435,541.0319999999998,538.2180000000002,0.0
49419.0,STARLINK-3120,PAYLOAD,2022-08-11 16:54:07,15.088387099999998,0.0001699,53.2174,331.9301,69.6594,290.458,-9.4035e-05,-1.784e-05,0.0,0 STARLINK-3120,1 49419U 21104M   22223.70425865 -.00001784  00000-0 -94035-4 0  9990,2 49419  53.2174 331.9301 0001699  69.6594 290.4580 15.08838710 42549,6917.884,95.438,540.925,538.5740000000002,0.0
49419.0,STARLINK-3120,PAYLOAD,2022-08-12 11:58:45,15.08843579,0.0001491,53.2176,328.361,52.1628,307.9498,0.00019629,2.838e-05,0.0,0 STARLINK-3120,1 49419U 21104M   22224.49913235  .00002838  00000-0  19629-3 0  9994,2 49419  53.2176 328.3610 0001491  52.1628 307.9498 15.08843579 42663,6917.869000000002,95.437,540.766,538.703,0.0
49419.0,STARLINK-3120,PAYLOAD,2022-08-12 13:34:08,15.08845538,0.0001488,53.2172,328.0637,52.4482,307.6646,0.00027652,4.116e-05,0.0,0 STARLINK-3120,1 49419U 21104M   22224.56537606  .00004116  00000-0  27652-3 0  9992,2 49419  53.2172 328.0637 0001488  52.4482 307.6646 15.08845538 41592,6917.863,95.437,540.758,538.6990000000002,0.0
49419.0,STARLINK-3120,PAYLOAD,2022-08-12 16:44:54,15.08848704,0.0001485,53.2173,327.469,52.5686,307.5441,0.00031454,4.723e-05,0.0,0 STARLINK-3120,1 49419U 21104M   22224.69785460  .00004723  00000-0  31454-3 0  9998,2 49419  53.2173 327.4690 0001485  52.5686 307.5441 15.08848704 41612,6917.854,95.437,540.746,538.691,0.0
49419.0,STARLINK-3120,PAYLOAD,2022-08-13 13:24:55,15.0883622,0.0001496999999999,53.2173,323.6032,50.2982,309.8142,7.264600000000001e-05,8.68e-06,0.0,0 STARLINK-3120,1 49419U 21104M   22225.55898053  .00000868  00000-0  72646-4 0  9992,2 49419  53.2173 323.6032 0001497  50.2982 309.8142 15.08836220 41744,6917.892,95.438,540.793,538.721,0.0
49419.0,STARLINK-3120,PAYLOAD,2022-08-13 18:11:05,15.08835298,0.0001512,53.2172,322.7113,49.6515,310.4609,3.2926e-05,2.36e-06,0.0,0 STARLINK-3120,1 49419U 21104M   22225.75770095  .00000236  00000-0  32926-4 0  9995,2 49419  53.2172 322.7113 0001512  49.6515 310.4609 15.08835298 41778,6917.895,95.438,540.806,538.714,0.0
49419.0,STARLINK-3120,PAYLOAD,2022-08-14 11:40:20,15.08836791,0.000151,53.2177,319.4403,50.6758,309.4368,-3.7116e-06,-3.47e-06,0.0,0 STARLINK-3120,1 49419U 21104M   22226.48634320 -.00000347  00000-0 -37116-5 0  9998,2 49419  53.2177 319.4403 0001510  50.6758 309.4368 15.08836791 41888,6917.89,95.438,540.8,538.711,0.0
49419.0,STARLINK-3120,PAYLOAD,2022-08-14 18:01:52,15.08841323,0.0001530999999999,53.2176,318.2506,48.8428,311.2696,-3.2629e-05,-8.07e-06,0.0,0 STARLINK-3120,1 49419U 21104M   22226.75130014 -.00000807  00000-0 -32629-4 0  9993,2 49419  53.2176 318.2506 0001531  48.8428 311.2696 15.08841323 41921,6917.876,95.437,540.8,538.682,0.0
